{
  "type": "FeatureCollection",
  "features": [
    {
      "type": "Feature",
      "properties": {
        "norad_id": 31342,
        "name": "FENGYUN 1C DEB",
        "group": "fengyun-1c-debris",
        "lat": 78.65031834742805,
        "lon": 167.7492033868396,
        "alt_km": 824.2360354134325,
        "timestamp": "2025-12-06T03:35:02.153231+00:00",
        "meta_object_name": "FENGYUN 1C DEB",
        "meta_object_id": "1999-025BQW",
        "meta_epoch": "2025-11-29T02:18:53.046720",
        "meta_mean_motion": 14.36748173,
        "meta_eccentricity": 0.01111347,
        "meta_inclination": 98.9329,
        "meta_ra_of_asc_node": 288.8418,
        "meta_arg_of_pericenter": 259.8555,
        "meta_mean_anomaly": 99.0079,
        "meta_ephemeris_type": 0,
        "meta_classification_type": "U",
        "meta_norad_cat_id": 31342,
        "meta_element_set_no": 999,
        "meta_rev_at_epoch": 97695,
        "meta_bstar": 0.00017184307,
        "meta_mean_motion_dot": 4.93e-06,
        "meta_mean_motion_ddot": 0,
        "tle_line1": "1 31342U 99025BQW 25333.09644730  .00000493  00000+0  17184-3 0  9996",
        "tle_line2": "2 31342  98.9329 288.8418 0111134 259.8555  99.0079 14.36748173976958"
      },
      "geometry": {
        "type": "Point",
        "coordinates": [
          167.7492033868396,
          78.65031834742805
        ]
      }
    },
    {
      "type": "Feature",
      "properties": {
        "norad_id": 31346,
        "name": "FENGYUN 1C DEB",
        "group": "fengyun-1c-debris",
        "lat": -34.317435624258415,
        "lon": -47.808259140289955,
        "alt_km": 515.8116704291742,
        "timestamp": "2025-12-06T03:35:02.153242+00:00",
        "meta_object_name": "FENGYUN 1C DEB",
        "meta_object_id": "1999-025BRA",
        "meta_epoch": "2025-12-03T15:19:03.043488",
        "meta_mean_motion": 15.10306976,
        "meta_eccentricity": 0.01128845,
        "meta_inclination": 98.8643,
        "meta_ra_of_asc_node": 303.1721,
        "meta_arg_of_pericenter": 45.3563,
        "meta_mean_anomaly": 315.6798,
        "meta_ephemeris_type": 0,
        "meta_classification_type": "U",
        "meta_norad_cat_id": 31346,
        "meta_element_set_no": 999,
        "meta_rev_at_epoch": 99358,
        "meta_bstar": 0.0016108352,
        "meta_mean_motion_dot": 0.00030745,
        "meta_mean_motion_ddot": 0,
        "tle_line1": "1 31346U 99025BRA 25337.63822967  .00030745  00000+0  16108-2 0  9991",
        "tle_line2": "2 31346  98.8643 303.1721 0112884  45.3563 315.6798 15.10306976993585"
      },
      "geometry": {
        "type": "Point",
        "coordinates": [
          -47.808259140289955,
          -34.317435624258415
        ]
      }
    },
    {
      "type": "Feature",
      "properties": {
        "norad_id": 31348,
        "name": "FENGYUN 1C DEB",
        "group": "fengyun-1c-debris",
        "lat": 4.61247749414719,
        "lon": -69.97025475041784,
        "alt_km": 776.0549166421424,
        "timestamp": "2025-12-06T03:35:02.153253+00:00",
        "meta_object_name": "FENGYUN 1C DEB",
        "meta_object_id": "1999-025BRC",
        "meta_epoch": "2025-12-02T08:09:36.502848",
        "meta_mean_motion": 14.33921612,
        "meta_eccentricity": 0.00348741,
        "meta_inclination": 99.1182,
        "meta_ra_of_asc_node": 286.7588,
        "meta_arg_of_pericenter": 95.0005,
        "meta_mean_anomaly": 56.8667,
        "meta_ephemeris_type": 0,
        "meta_classification_type": "U",
        "meta_norad_cat_id": 31348,
        "meta_element_set_no": 999,
        "meta_rev_at_epoch": 96100,
        "meta_bstar": 0.0014908985,
        "meta_mean_motion_dot": 4.138e-05,
        "meta_mean_motion_ddot": 0,
        "tle_line1": "1 31348U 99025BRC 25336.34000582  .00004138  00000+0  14909-2 0  9995",
        "tle_line2": "2 31348  99.1182 286.7588 0034874  95.0005  56.8667 14.33921612961006"
      },
      "geometry": {
        "type": "Point",
        "coordinates": [
          -69.97025475041784,
          4.61247749414719
        ]
      }
    },
    {
      "type": "Feature",
      "properties": {
        "norad_id": 31350,
        "name": "FENGYUN 1C DEB",
        "group": "fengyun-1c-debris",
        "lat": -66.46118194614455,
        "lon": -49.31804348129026,
        "alt_km": 793.946068739886,
        "timestamp": "2025-12-06T03:35:02.153263+00:00",
        "meta_object_name": "FENGYUN 1C DEB",
        "meta_object_id": "1999-025BRE",
        "meta_epoch": "2025-11-30T17:33:48.876480",
        "meta_mean_motion": 14.34783112,
        "meta_eccentricity": 0.00667285,
        "meta_inclination": 98.9598,
        "meta_ra_of_asc_node": 146.2979,
        "meta_arg_of_pericenter": 160.2382,
        "meta_mean_anomaly": 200.141,
        "meta_ephemeris_type": 0,
        "meta_classification_type": "U",
        "meta_norad_cat_id": 31350,
        "meta_element_set_no": 999,
        "meta_rev_at_epoch": 70081,
        "meta_bstar": 0.00062280408,
        "meta_mean_motion_dot": 1.764e-05,
        "meta_mean_motion_ddot": 0,
        "tle_line1": "1 31350U 99025BRE 25334.73181570  .00001764  00000+0  62280-3 0  9994",
        "tle_line2": "2 31350  98.9598 146.2979 0066728 160.2382 200.1410 14.34783112700819"
      },
      "geometry": {
        "type": "Point",
        "coordinates": [
          -49.31804348129026,
          -66.46118194614455
        ]
      }
    },
    {
      "type": "Feature",
      "properties": {
        "norad_id": 31351,
        "name": "FENGYUN 1C DEB",
        "group": "fengyun-1c-debris",
        "lat": 55.13461802699775,
        "lon": -45.73046499835565,
        "alt_km": 798.4591188321556,
        "timestamp": "2025-12-06T03:35:02.153273+00:00",
        "meta_object_name": "FENGYUN 1C DEB",
        "meta_object_id": "1999-025BRF",
        "meta_epoch": "2025-12-03T10:27:48.292704",
        "meta_mean_motion": 14.06918147,
        "meta_eccentricity": 0.0093812,
        "meta_inclination": 98.7941,
        "meta_ra_of_asc_node": 324.4684,
        "meta_arg_of_pericenter": 77.2501,
        "meta_mean_anomaly": 283.9133,
        "meta_ephemeris_type": 0,
        "meta_classification_type": "U",
        "meta_norad_cat_id": 31351,
        "meta_element_set_no": 999,
        "meta_rev_at_epoch": 61244,
        "meta_bstar": 0.00036238067,
        "meta_mean_motion_dot": 5.87e-06,
        "meta_mean_motion_ddot": 0,
        "tle_line1": "1 31351U 99025BRF 25337.43597561  .00000587  00000+0  36238-3 0  9992",
        "tle_line2": "2 31351  98.7941 324.4684 0093812  77.2501 283.9133 14.06918147612446"
      },
      "geometry": {
        "type": "Point",
        "coordinates": [
          -45.73046499835565,
          55.13461802699775
        ]
      }
    },
    {
      "type": "Feature",
      "properties": {
        "norad_id": 31353,
        "name": "FENGYUN 1C DEB",
        "group": "fengyun-1c-debris",
        "lat": 80.59113949168628,
        "lon": -167.6675437875823,
        "alt_km": 621.954423717093,
        "timestamp": "2025-12-06T03:35:02.153284+00:00",
        "meta_object_name": "FENGYUN 1C DEB",
        "meta_object_id": "1999-025BRH",
        "meta_epoch": "2025-11-28T00:21:57.879936",
        "meta_mean_motion": 14.29784822,
        "meta_eccentricity": 0.02273016,
        "meta_inclination": 98.9934,
        "meta_ra_of_asc_node": 256.8108,
        "meta_arg_of_pericenter": 110.0293,
        "meta_mean_anomaly": 252.5515,
        "meta_ephemeris_type": 0,
        "meta_classification_type": "U",
        "meta_norad_cat_id": 31353,
        "meta_element_set_no": 999,
        "meta_rev_at_epoch": 96374,
        "meta_bstar": 0.00040911928,
        "meta_mean_motion_dot": 1.339e-05,
        "meta_mean_motion_ddot": 0,
        "tle_line1": "1 31353U 99025BRH 25332.01525324  .00001339  00000+0  40912-3 0  9991",
        "tle_line2": "2 31353  98.9934 256.8108 0227301 110.0293 252.5515 14.29784822963741"
      },
      "geometry": {
        "type": "Point",
        "coordinates": [
          -167.6675437875823,
          80.59113949168628
        ]
      }
    },
    {
      "type": "Feature",
      "properties": {
        "norad_id": 31357,
        "name": "FENGYUN 1C DEB",
        "group": "fengyun-1c-debris",
        "lat": -81.20855213295984,
        "lon": 112.81938742845509,
        "alt_km": 812.0594904399368,
        "timestamp": "2025-12-06T03:35:02.153294+00:00",
        "meta_object_name": "FENGYUN 1C DEB",
        "meta_object_id": "1999-025BRM",
        "meta_epoch": "2025-11-30T00:52:28.172352",
        "meta_mean_motion": 14.18522875,
        "meta_eccentricity": 0.00493295,
        "meta_inclination": 98.613,
        "meta_ra_of_asc_node": 5.4099,
        "meta_arg_of_pericenter": 329.9646,
        "meta_mean_anomaly": 59.6806,
        "meta_ephemeris_type": 0,
        "meta_classification_type": "U",
        "meta_norad_cat_id": 31357,
        "meta_element_set_no": 999,
        "meta_rev_at_epoch": 96524,
        "meta_bstar": 4.375307e-05,
        "meta_mean_motion_dot": 4.9e-07,
        "meta_mean_motion_ddot": 0,
        "tle_line1": "1 31357U 99025BRM 25334.03643718  .00000049  00000+0  43753-4 0  9991",
        "tle_line2": "2 31357  98.6130   5.4099 0049329 329.9646  59.6806 14.18522875965244"
      },
      "geometry": {
        "type": "Point",
        "coordinates": [
          112.81938742845509,
          -81.20855213295984
        ]
      }
    }
  ]
}